NORAD_CAT_ID,OBJECT_NAME,OBJECT_TYPE,EPOCH,MEAN_MOTION,ECCENTRICITY,INCLINATION,RA_OF_ASC_NODE,ARG_OF_PERICENTER,MEAN_ANOMALY,BSTAR,MEAN_MOTION_DOT,MEAN_MOTION_DDOT,TLE_LINE0,TLE_LINE1,TLE_LINE2,SEMIMAJOR_AXIS,PERIOD,APOGEE,PERIGEE,DECAYED
52660.0,STARLINK-4081,PAYLOAD,2024-04-26 08:21:56,15.08848328,9.87e-05,53.2182,337.2659,111.4428,248.667,0.00028816,4.302e-05,0.0,0 STARLINK-4081,1 52660U 22053E   24117.34856944  .00004302  00000-0  28816-3 0  9996,2 52660  53.2182 337.2659 0000987 111.4428 248.6670 15.08848328108102,6917.855,95.437,540.403,539.037,0.0
52660.0,STARLINK-4081,PAYLOAD,2024-04-27 00:15:47,15.08848728,9.65e-05,53.217,334.2925,100.7073,259.4028,0.00019256,2.779e-05,0.0,0 STARLINK-4081,1 52660U 22053E   24118.01097017  .00002779  00000-0  19256-3 0  9993,2 52660  53.2170 334.2925 0000965 100.7073 259.4028 15.08848728108207,6917.854,95.437,540.386,539.051,0.0
52660.0,STARLINK-4081,PAYLOAD,2024-04-27 20:55:49,15.08836785,8.83e-05,53.2174,330.4295,91.331,268.7784,-7.4311e-05,-1.47e-05,0.0,0 STARLINK-4081,1 52660U 22053E   24118.87209575 -.00001470  00000-0 -74311-4 0  9994,2 52660  53.2174 330.4295 0000883  91.3310 268.7784 15.08836785108333,6917.89,95.438,540.366,539.144,0.0
52660.0,STARLINK-4081,PAYLOAD,2024-04-28 06:28:07,15.08842349,9.6e-05,53.2181,328.646,92.6452,267.465,2.4872e-05,1.08e-06,0.0,0 STARLINK-4081,1 52660U 22053E   24119.26953324  .00000108  00000-0  24872-4 0  9998,2 52660  53.2181 328.6460 0000960  92.6452 267.4650 15.08842349108398,6917.873,95.437,540.402,539.074,0.0
52660.0,STARLINK-4081,PAYLOAD,2024-04-28 20:46:36,15.08829358,0.000105,53.2189,325.9726,86.9622,273.1491,0.00011417,1.529e-05,0.0,0 STARLINK-4081,1 52660U 22053E   24119.86570417  .00001529  00000-0  11417-3 0  9990,2 52660  53.2189 325.9726 0001050  86.9622 273.1491 15.08829358108489,6917.913,95.438,540.504,539.052,0.0
52660.0,STARLINK-4081,PAYLOAD,2024-04-29 06:18:54,15.08848535,0.0001188,53.2201,324.1885,97.0089,263.1038,-7.9056e-06,-4.14e-06,0.0,0 STARLINK-4081,1 52660U 22053E   24120.26313280 -.00000414  00000-0 -79056-5 0  9998,2 52660  53.2201 324.1885 0001188  97.0089 263.1038 15.08848535108544,6917.854,95.437,540.541,538.897,0.0
52660.0,STARLINK-4081,PAYLOAD,2024-04-29 20:37:24,15.08827606,0.0001323,53.2201,321.5127,108.6389,251.4747,8.9476e-05,1.136e-05,0.0,0 STARLINK-4081,1 52660U 22053E   24120.85930739  .00001136  00000-0  89476-4 0  9993,2 52660  53.2201 321.5127 0001323 108.6389 251.4747 15.08827606108630,6917.918,95.438,540.699,538.868,0.0
52660.0,STARLINK-4081,PAYLOAD,2024-04-29 22:12:47,15.08829364,0.0001331,53.2199,321.2145,106.2514,253.8624,9.7111e-05,1.258e-05,0.0,0 STARLINK-4081,1 52660U 22053E   24120.92554632  .00001258  00000-0  97111-4 0  9995,2 52660  53.2199 321.2145 0001331 106.2514 253.8624 15.08829364108640,6917.913,95.438,540.699,538.857,0.0
52660.0,STARLINK-4081,PAYLOAD,2024-04-30 06:09:42,15.0884129,0.0001135,53.2191,319.726,97.1312,262.981,0.00011533,1.548e-05,0.0,0 STARLINK-4081,1 52660U 22053E   24121.25673863  .00001548  00000-0  11533-3 0  9995,2 52660  53.2191 319.7260 0001135  97.1312 262.9810 15.08841290108693,6917.876,95.437,540.527,538.956,0.0
52660.0,STARLINK-4081,PAYLOAD,2024-04-30 22:03:33,15.08840969,0.0001142,53.2181,316.7524,86.7105,273.4018,8.0134e-05,9.88e-06,0.0,0 STARLINK-4081,1 52660U 22053E   24121.91914212  .00000988  00000-0  80134-4 0  9995,2 52660  53.2181 316.7524 0001142  86.7105 273.4018 15.08840969108794,6917.877,95.437,540.532,538.952,0.0
52660.0,STARLINK-4081,PAYLOAD,2024-04-30 23:38:57,15.08837843,0.0001256,53.218,316.4532,96.3298,263.7837,0.00012629,1.722e-05,0.0,0 STARLINK-4081,1 52660U 22053E   24121.98538254  .00001722  00000-0  12629-3 0  9990,2 52660  53.2180 316.4532 0001256  96.3298 263.7837 15.08837843108805,6917.887,95.438,540.621,538.883,0.0
52660.0,STARLINK-4081,PAYLOAD,2024-05-01 06:00:29,15.08835048,0.0001137,53.2179,315.265,95.4217,264.6904,0.00030556,4.578e-05,0.0,0 STARLINK-4081,1 52660U 22053E   24122.25034065  .00004578  00000-0  30556-3 0  9993,2 52660  53.2179 315.2650 0001137  95.4217 264.6904 15.08835048108844,6917.896,95.438,540.547,538.974,0.0
52660.0,STARLINK-4081,PAYLOAD,2024-05-02 12:12:48,15.08841806,0.0001556,53.2161,309.6141,82.945,277.1719,8.8216e-05,1.116e-05,0.0,0 STARLINK-4081,1 52660U 22053E   24123.50889862  .00001116  00000-0  88216-4 0  9997,2 52660  53.2161 309.6141 0001556  82.9450 277.1719 15.08841806109036,6917.875,95.437,540.816,538.663,0.0
52660.0,STARLINK-4081,PAYLOAD,2024-05-02 18:34:21,15.08836928,0.0001173,53.2171,308.425,81.9253,278.1872,-1.2588e-05,-4.88e-06,0.0,0 STARLINK-4081,1 52660U 22053E   24123.77386342 -.00000488  00000-0 -12588-4 0  9993,2 52660  53.2171 308.4250 0001173  81.9253 278.1872 15.08836928109074,6917.89,95.438,540.566,538.943,0.0
52660.0,STARLINK-4081,PAYLOAD,2024-05-03 05:42:02,15.08850115,0.0001074,53.2173,306.3423,91.0225,269.089,3.3887e-05,2.52e-06,0.0,0 STARLINK-4081,1 52660U 22053E   24124.23753092  .00000252  00000-0  33887-4 0  9997,2 52660  53.2173 306.3423 0001074  91.0225 269.0890 15.08850115109147,6917.849,95.437,540.457,538.971,0.0
52660.0,STARLINK-4081,PAYLOAD,2024-05-03 18:25:09,15.08831507,0.0001197,53.2147,303.9639,92.9555,267.1574,-8.3407e-05,-1.615e-05,0.0,0 STARLINK-4081,1 52660U 22053E   24124.76746734 -.00001615  00000-0 -83407-4 0  9999,2 52660  53.2147 303.9639 0001197  92.9555 267.1574 15.08831507109223,6917.906,95.438,540.599,538.943,0.0
52660.0,STARLINK-4081,PAYLOAD,2024-05-04 11:54:23,15.08835358,0.0001091,53.2175,300.6924,98.4113,261.7002,9.1372e-05,1.167e-05,0.0,0 STARLINK-4081,1 52660U 22053E   24125.49610166  .00001167  00000-0  91372-4 0  9999,2 52660  53.2175 300.6924 0001091  98.4113 261.7002 15.08835358109335,6917.895,95.438,540.514,539.005,0.0
52660.0,STARLINK-4081,PAYLOAD,2024-05-05 14:55:56,15.08836753,0.0001174,53.2183,295.6364,106.1355,253.9766,0.00016373,2.319e-05,0.0,0 STARLINK-4081,1 52660U 22053E   24126.62218146  .00002319  00000-0  16373-3 0  9994,2 52660  53.2183 295.6364 0001174 106.1355 253.9766 15.08836753109501,6917.89,95.438,540.567,538.943,0.0
52660.0,STARLINK-4081,PAYLOAD,2024-05-05 18:06:42,15.08837349,0.0001071,53.2178,295.0437,96.8208,263.2906,0.00017778,2.542e-05,0.0,0 STARLINK-4081,1 52660U 22053E   24126.75466229  .00002542  00000-0  17778-3 0  9993,2 52660  53.2178 295.0437 0001071  96.8208 263.2906 15.08837349109522,6917.888,95.438,540.494,539.013,0.0
52660.0,STARLINK-4081,PAYLOAD,2024-05-06 03:39:00,15.08849306,0.0001052,53.2181,293.2593,95.7659,264.3453,0.00017983,2.576e-05,0.0,0 STARLINK-4081,1 52660U 22053E   24127.15209408  .00002576  00000-0  17983-3 0  9997,2 52660  53.2181 293.2593 0001052  95.7659 264.3453 15.08849306109587,6917.852,95.437,540.445,538.989,0.0
52660.0,STARLINK-4081,PAYLOAD,2024-05-06 11:35:57,15.08845152,0.0001642,53.218,291.7723,79.9446,280.1731,0.00010937,1.453e-05,0.0,0 STARLINK-4081,1 52660U 22053E   24127.48330009  .00001453  00000-0  10937-3 0  9990,2 52660  53.2180 291.7723 0001642  79.9446 280.1731 15.08845152109633,6917.865,95.437,540.866,538.594,0.0
52660.0,STARLINK-4081,PAYLOAD,2024-05-06 14:46:43,15.08837804,0.0001147,53.2183,291.1779,81.7439,278.3683,4.646e-05,4.52e-06,0.0,0 STARLINK-4081,1 52660U 22053E   24127.61578622  .00000452  00000-0  46460-4 0  9999,2 52660  53.2183 291.1779 0001147  81.7439 278.3683 15.08837804109656,6917.887,95.438,540.546,538.959,0.0
52660.0,STARLINK-4081,PAYLOAD,2024-05-06 17:57:29,15.08844345,0.0001164,53.2185,290.5842,88.8448,271.2678,8.7622e-05,1.107e-05,0.0,0 STARLINK-4081,1 52660U 22053E   24127.74826109  .00001107  00000-0  87622-4 0  9992,2 52660  53.2185 290.5842 0001164  88.8448 271.2678 15.08844345109675,6917.867,95.437,540.537,538.927,0.0
52660.0,STARLINK-4081,PAYLOAD,2024-05-07 03:29:47,15.08856375,0.000124,53.2194,288.8016,97.7827,262.3306,0.00017206,2.453e-05,0.0,0 STARLINK-4081,1 52660U 22053E   24128.14569026  .00002453  00000-0  17206-3 0  9994,2 52660  53.2194 288.8016 0001240  97.7827 262.3306 15.08856375109735,6917.83,95.437,540.553,538.838,0.0
52660.0,STARLINK-4081,PAYLOAD,2024-05-07 09:51:21,15.08846261,0.0002193,53.219,287.6116,87.6274,272.497,0.00012531,1.707e-05,0.0,0 STARLINK-4081,1 52660U 22053E   24128.41066069  .00001707  00000-0  12531-3 0  9990,2 52660  53.2190 287.6116 0002193  87.6274 272.4970 15.08846261109777,6917.861,95.437,541.243,538.209,0.0
52660.0,STARLINK-4081,PAYLOAD,2024-05-07 14:37:31,15.08820257,0.0001079,53.218,286.7182,97.0735,263.038,-0.00026412,-4.486e-05,0.0,0 STARLINK-4081,1 52660U 22053E   24128.60939073 -.00004486  00000-0 -26412-3 0  9997,2 52660  53.2180 286.7182 0001079  97.0735 263.0380 15.08820257109800,6917.941,95.439,540.552,539.059,0.0
52660.0,STARLINK-4081,PAYLOAD,2024-05-07 20:59:03,15.08828499,0.0001122,53.2171,285.5277,93.3062,266.8058,-0.00011171,-2.065e-05,0.0,0 STARLINK-4081,1 52660U 22053E   24128.87434996 -.00002065  00000-0 -11171-3 0  9997,2 52660  53.2171 285.5277 0001122  93.3062 266.8058 15.08828499109846,6917.916,95.438,540.557,539.004,0.0
52660.0,STARLINK-4081,PAYLOAD,2024-05-08 14:28:18,15.08838441,7.89e-05,53.2156,282.2554,75.5851,284.5228,0.00017201,2.451e-05,0.0,0 STARLINK-4081,1 52660U 22053E   24129.60298751  .00002451  00000-0  17201-3 0  9993,2 52660  53.2156 282.2554 0000789  75.5851 284.5228 15.08838441109953,6917.885,95.438,540.296,539.204,0.0
52660.0,STARLINK-4081,PAYLOAD,2024-05-08 17:39:03,15.08854098,0.0001027,53.2165,281.6617,85.1515,274.9594,0.00034309,5.179e-05,0.0,0 STARLINK-4081,1 52660U 22053E   24129.73546042  .00005179  00000-0  34309-3 0  9994,2 52660  53.2165 281.6617 0001027  85.1515 274.9594 15.08854098109973,6917.837,95.437,540.413,538.992,0.0
52660.0,STARLINK-4081,PAYLOAD,2024-05-09 14:19:05,15.08829413,7.13e-05,53.214,277.7966,75.1876,284.9195,0.00019942,2.887e-05,0.0,0 STARLINK-4081,1 52660U 22053E   24130.59659161  .00002887  00000-0  19942-3 0  9996,2 52660  53.2140 277.7966 0000713  75.1876 284.9195 15.08829413110107,6917.913,95.438,540.271,539.285,0.0
